<?xml version="1.0" encoding="UTF-8"?>
<ndm xmlns:xsi="http://www.w3.org/2001/XMLSchema-instance" xsi:noNamespaceSchemaLocation="https://sanaregistry.org/r/ndmxml_unqualified/ndmxml-2.0.0-master-2.0.xsd">
<omm id="CCSDS_OMM_VERS" version="2.0">
<header><CREATION_DATE/><ORIGINATOR/></header><body><segment><metadata><OBJECT_NAME>KUIPER-00188</OBJECT_NAME><OBJECT_ID>2025-301K</OBJECT_ID><CENTER_NAME>EARTH</CENTER_NAME><REF_FRAME>TEME</REF_FRAME><TIME_SYSTEM>UTC</TIME_SYSTEM><MEAN_ELEMENT_THEORY>SGP4</MEAN_ELEMENT_THEORY></metadata><data><meanElements><EPOCH>2026-01-17T12:09:06.382368</EPOCH><MEAN_MOTION>15.35838937</MEAN_MOTION><ECCENTRICITY>.00074197</ECCENTRICITY><INCLINATION>51.8702</INCLINATION><RA_OF_ASC_NODE>312.7045</RA_OF_ASC_NODE><ARG_OF_PERICENTER>207.8929</ARG_OF_PERICENTER><MEAN_ANOMALY>152.1660</MEAN_ANOMALY></meanElements><tleParameters><EPHEMERIS_TYPE>0</EPHEMERIS_TYPE><CLASSIFICATION_TYPE>U</CLASSIFICATION_TYPE><NORAD_CAT_ID>67142</NORAD_CAT_ID><ELEMENT_SET_NO>999</ELEMENT_SET_NO><REV_AT_EPOCH>586</REV_AT_EPOCH><BSTAR>.5359528E-3</BSTAR><MEAN_MOTION_DOT>.18653E-3</MEAN_MOTION_DOT><MEAN_MOTION_DDOT>0</MEAN_MOTION_DDOT></tleParameters></data></segment></body></omm>
<omm id="CCSDS_OMM_VERS" version="2.0">
<header><CREATION_DATE/><ORIGINATOR/></header><body><segment><metadata><OBJECT_NAME>KUIPER-00191</OBJECT_NAME><OBJECT_ID>2025-301L</OBJECT_ID><CENTER_NAME>EARTH</CENTER_NAME><REF_FRAME>TEME</REF_FRAME><TIME_SYSTEM>UTC</TIME_SYSTEM><MEAN_ELEMENT_THEORY>SGP4</MEAN_ELEMENT_THEORY></metadata><data><meanElements><EPOCH>2026-01-17T07:22:06.129696</EPOCH><MEAN_MOTION>15.36075362</MEAN_MOTION><ECCENTRICITY>.00067587</ECCENTRICITY><INCLINATION>51.8679</INCLINATION><RA_OF_ASC_NODE>313.6161</RA_OF_ASC_NODE><ARG_OF_PERICENTER>201.6106</ARG_OF_PERICENTER><MEAN_ANOMALY>158.4596</MEAN_ANOMALY></meanElements><tleParameters><EPHEMERIS_TYPE>0</EPHEMERIS_TYPE><CLASSIFICATION_TYPE>U</CLASSIFICATION_TYPE><NORAD_CAT_ID>67143</NORAD_CAT_ID><ELEMENT_SET_NO>999</ELEMENT_SET_NO><REV_AT_EPOCH>586</REV_AT_EPOCH><BSTAR>.10162248E-2</BSTAR><MEAN_MOTION_DOT>.36068E-3</MEAN_MOTION_DOT><MEAN_MOTION_DDOT>0</MEAN_MOTION_DDOT></tleParameters></data></segment></body></omm>
<omm id="CCSDS_OMM_VERS" version="2.0">
<header><CREATION_DATE/><ORIGINATOR/></header><body><segment><metadata><OBJECT_NAME>KUIPER-00196</OBJECT_NAME><OBJECT_ID>2025-301M</OBJECT_ID><CENTER_NAME>EARTH</CENTER_NAME><REF_FRAME>TEME</REF_FRAME><TIME_SYSTEM>UTC</TIME_SYSTEM><MEAN_ELEMENT_THEORY>SGP4</MEAN_ELEMENT_THEORY></metadata><data><meanElements><EPOCH>2026-01-17T05:24:36.816768</EPOCH><MEAN_MOTION>15.36722500</MEAN_MOTION><ECCENTRICITY>.00036711</ECCENTRICITY><INCLINATION>51.8738</INCLINATION><RA_OF_ASC_NODE>313.8324</RA_OF_ASC_NODE><ARG_OF_PERICENTER>160.5268</ARG_OF_PERICENTER><MEAN_ANOMALY>199.5860</MEAN_ANOMALY></meanElements><tleParameters><EPHEMERIS_TYPE>0</EPHEMERIS_TYPE><CLASSIFICATION_TYPE>U</CLASSIFICATION_TYPE><NORAD_CAT_ID>67144</NORAD_CAT_ID><ELEMENT_SET_NO>999</ELEMENT_SET_NO><REV_AT_EPOCH>582</REV_AT_EPOCH><BSTAR>.14125097E-2</BSTAR><MEAN_MOTION_DOT>.51429E-3</MEAN_MOTION_DOT><MEAN_MOTION_DDOT>0</MEAN_MOTION_DDOT></tleParameters></data></segment></body></omm>
<omm id="CCSDS_OMM_VERS" version="2.0">
<header><CREATION_DATE/><ORIGINATOR/></header><body><segment><metadata><OBJECT_NAME>KUIPER-00204</OBJECT_NAME><OBJECT_ID>2025-301N</OBJECT_ID><CENTER_NAME>EARTH</CENTER_NAME><REF_FRAME>TEME</REF_FRAME><TIME_SYSTEM>UTC</TIME_SYSTEM><MEAN_ELEMENT_THEORY>SGP4</MEAN_ELEMENT_THEORY></metadata><data><meanElements><EPOCH>2026-01-17T14:00:03.000384</EPOCH><MEAN_MOTION>15.24174055</MEAN_MOTION><ECCENTRICITY>.00045512</ECCENTRICITY><INCLINATION>51.8843</INCLINATION><RA_OF_ASC_NODE>312.8286</RA_OF_ASC_NODE><ARG_OF_PERICENTER>135.3030</ARG_OF_PERICENTER><MEAN_ANOMALY>21.0067</MEAN_ANOMALY></meanElements><tleParameters><EPHEMERIS_TYPE>0</EPHEMERIS_TYPE><CLASSIFICATION_TYPE>U</CLASSIFICATION_TYPE><NORAD_CAT_ID>67145</NORAD_CAT_ID><ELEMENT_SET_NO>999</ELEMENT_SET_NO><REV_AT_EPOCH>563</REV_AT_EPOCH><BSTAR>.74550077E-3</BSTAR><MEAN_MOTION_DOT>.18112E-3</MEAN_MOTION_DOT><MEAN_MOTION_DDOT>0</MEAN_MOTION_DDOT></tleParameters></data></segment></body></omm>
<omm id="CCSDS_OMM_VERS" version="2.0">
<header><CREATION_DATE/><ORIGINATOR/></header><body><segment><metadata><OBJECT_NAME>KUIPER-00210</OBJECT_NAME><OBJECT_ID>2025-301P</OBJECT_ID><CENTER_NAME>EARTH</CENTER_NAME><REF_FRAME>TEME</REF_FRAME><TIME_SYSTEM>UTC</TIME_SYSTEM><MEAN_ELEMENT_THEORY>SGP4</MEAN_ELEMENT_THEORY></metadata><data><meanElements><EPOCH>2026-01-17T12:33:31.548384</EPOCH><MEAN_MOTION>15.34999753</MEAN_MOTION><ECCENTRICITY>.00116386</ECCENTRICITY><INCLINATION>51.8624</INCLINATION><RA_OF_ASC_NODE>312.7914</RA_OF_ASC_NODE><ARG_OF_PERICENTER>228.5946</ARG_OF_PERICENTER><MEAN_ANOMALY>131.4040</MEAN_ANOMALY></meanElements><tleParameters><EPHEMERIS_TYPE>0</EPHEMERIS_TYPE><CLASSIFICATION_TYPE>U</CLASSIFICATION_TYPE><NORAD_CAT_ID>67146</NORAD_CAT_ID><ELEMENT_SET_NO>999</ELEMENT_SET_NO><REV_AT_EPOCH>603</REV_AT_EPOCH><BSTAR>.10469199E-2</BSTAR><MEAN_MOTION_DOT>.35951E-3</MEAN_MOTION_DOT><MEAN_MOTION_DDOT>0</MEAN_MOTION_DDOT></tleParameters></data></segment></body></omm>
<omm id="CCSDS_OMM_VERS" version="2.0">
<header><CREATION_DATE/><ORIGINATOR/></header><body><segment><metadata><OBJECT_NAME>KUIPER-00221</OBJECT_NAME><OBJECT_ID>2025-301Q</OBJECT_ID><CENTER_NAME>EARTH</CENTER_NAME><REF_FRAME>TEME</REF_FRAME><TIME_SYSTEM>UTC</TIME_SYSTEM><MEAN_ELEMENT_THEORY>SGP4</MEAN_ELEMENT_THEORY></metadata><data><meanElements><EPOCH>2026-01-17T14:00:03.000384</EPOCH><MEAN_MOTION>15.30304408</MEAN_MOTION><ECCENTRICITY>.00051453</ECCENTRICITY><INCLINATION>51.8738</INCLINATION><RA_OF_ASC_NODE>312.3321</RA_OF_ASC_NODE><ARG_OF_PERICENTER>174.5392</ARG_OF_PERICENTER><MEAN_ANOMALY>259.9118</MEAN_ANOMALY></meanElements><tleParameters><EPHEMERIS_TYPE>0</EPHEMERIS_TYPE><CLASSIFICATION_TYPE>U</CLASSIFICATION_TYPE><NORAD_CAT_ID>67147</NORAD_CAT_ID><ELEMENT_SET_NO>999</ELEMENT_SET_NO><REV_AT_EPOCH>536</REV_AT_EPOCH><BSTAR>-.23279447E-2</BSTAR><MEAN_MOTION_DOT>-.68992E-3</MEAN_MOTION_DOT><MEAN_MOTION_DDOT>0</MEAN_MOTION_DDOT></tleParameters></data></segment></body></omm>
<omm id="CCSDS_OMM_VERS" version="2.0">
<header><CREATION_DATE/><ORIGINATOR/></header><body><segment><metadata><OBJECT_NAME>KUIPER-00232</OBJECT_NAME><OBJECT_ID>2025-301R</OBJECT_ID><CENTER_NAME>EARTH</CENTER_NAME><REF_FRAME>TEME</REF_FRAME><TIME_SYSTEM>UTC</TIME_SYSTEM><MEAN_ELEMENT_THEORY>SGP4</MEAN_ELEMENT_THEORY></metadata><data><meanElements><EPOCH>2026-01-17T12:53:38.519232</EPOCH><MEAN_MOTION>15.37099793</MEAN_MOTION><ECCENTRICITY>.00028715</ECCENTRICITY><INCLINATION>51.8761</INCLINATION><RA_OF_ASC_NODE>312.1733</RA_OF_ASC_NODE><ARG_OF_PERICENTER>106.5059</ARG_OF_PERICENTER><MEAN_ANOMALY>253.6243</MEAN_ANOMALY></meanElements><tleParameters><EPHEMERIS_TYPE>0</EPHEMERIS_TYPE><CLASSIFICATION_TYPE>U</CLASSIFICATION_TYPE><NORAD_CAT_ID>67148</NORAD_CAT_ID><ELEMENT_SET_NO>999</ELEMENT_SET_NO><REV_AT_EPOCH>587</REV_AT_EPOCH><BSTAR>.10000314E-2</BSTAR><MEAN_MOTION_DOT>.36671E-3</MEAN_MOTION_DOT><MEAN_MOTION_DDOT>0</MEAN_MOTION_DDOT></tleParameters></data></segment></body></omm>
<omm id="CCSDS_OMM_VERS" version="2.0">
<header><CREATION_DATE/><ORIGINATOR/></header><body><segment><metadata><OBJECT_NAME>KUIPER-00241</OBJECT_NAME><OBJECT_ID>2025-301S</OBJECT_ID><CENTER_NAME>EARTH</CENTER_NAME><REF_FRAME>TEME</REF_FRAME><TIME_SYSTEM>UTC</TIME_SYSTEM><MEAN_ELEMENT_THEORY>SGP4</MEAN_ELEMENT_THEORY></metadata><data><meanElements><EPOCH>2026-01-17T13:06:02.212416</EPOCH><MEAN_MOTION>15.36891764</MEAN_MOTION><ECCENTRICITY>.00028216</ECCENTRICITY><INCLINATION>51.8743</INCLINATION><RA_OF_ASC_NODE>312.2252</RA_OF_ASC_NODE><ARG_OF_PERICENTER>151.2467</ARG_OF_PERICENTER><MEAN_ANOMALY>208.8675</MEAN_ANOMALY></meanElements><tleParameters><EPHEMERIS_TYPE>0</EPHEMERIS_TYPE><CLASSIFICATION_TYPE>U</CLASSIFICATION_TYPE><NORAD_CAT_ID>67149</NORAD_CAT_ID><ELEMENT_SET_NO>999</ELEMENT_SET_NO><REV_AT_EPOCH>620</REV_AT_EPOCH><BSTAR>.99043885E-3</BSTAR><MEAN_MOTION_DOT>.36067E-3</MEAN_MOTION_DOT><MEAN_MOTION_DDOT>0</MEAN_MOTION_DDOT></tleParameters></data></segment></body></omm>
<omm id="CCSDS_OMM_VERS" version="2.0">
<header><CREATION_DATE/><ORIGINATOR/></header><body><segment><metadata><OBJECT_NAME>KUIPER-00245</OBJECT_NAME><OBJECT_ID>2025-301T</OBJECT_ID><CENTER_NAME>EARTH</CENTER_NAME><REF_FRAME>TEME</REF_FRAME><TIME_SYSTEM>UTC</TIME_SYSTEM><MEAN_ELEMENT_THEORY>SGP4</MEAN_ELEMENT_THEORY></metadata><data><meanElements><EPOCH>2026-01-17T14:00:03.000384</EPOCH><MEAN_MOTION>15.19868430</MEAN_MOTION><ECCENTRICITY>.00082593</ECCENTRICITY><INCLINATION>51.8828</INCLINATION><RA_OF_ASC_NODE>312.9978</RA_OF_ASC_NODE><ARG_OF_PERICENTER>202.1402</ARG_OF_PERICENTER><MEAN_ANOMALY>222.3969</MEAN_ANOMALY></meanElements><tleParameters><EPHEMERIS_TYPE>0</EPHEMERIS_TYPE><CLASSIFICATION_TYPE>U</CLASSIFICATION_TYPE><NORAD_CAT_ID>67150</NORAD_CAT_ID><ELEMENT_SET_NO>999</ELEMENT_SET_NO><REV_AT_EPOCH>536</REV_AT_EPOCH><BSTAR>-.48012831E-1</BSTAR><MEAN_MOTION_DOT>-.965327E-2</MEAN_MOTION_DOT><MEAN_MOTION_DDOT>0</MEAN_MOTION_DDOT></tleParameters></data></segment></body></omm>

</ndm>
